{
  "type": "FeatureCollection",
  "source": "OpenStreetMap API 0.6; consulta em 07/10/2026",
  "license": "ODbL 1.0, © OpenStreetMap contributors, https://www.openstreetmap.org/copyright",
  "features": [
    {
      "type": "Feature",
      "properties": {
        "name": "Pavilhão de Aulas I",
        "source": "https://www.openstreetmap.org/node/8222713258"
      },
      "geometry": {
        "type": "Point",
        "coordinates": [
          -42.8674828,
          -20.7606768
        ]
      }
    },
    {
      "type": "Feature",
      "properties": {
        "name": "Edifício Arthur Bernardes",
        "source": "https://www.openstreetmap.org/way/148819551"
      },
      "geometry": {
        "type": "Polygon",
        "coordinates": [
          [
            [
              -42.8692923,
              -20.7617411
            ],
            [
              -42.8693509,
              -20.7618062
            ],
            [
              -42.8694064,
              -20.7618677
            ],
            [
              -42.8694259,
              -20.7618894
            ],
            [
              -42.8694551,
              -20.7619219
            ],
            [
              -42.8695367,
              -20.7620124
            ],
            [
              -42.8696749,
              -20.7621658
            ],
            [
              -42.8697202,
              -20.7622161
            ],
            [
              -42.8697604,
              -20.7622608
            ],
            [
              -42.8698257,
              -20.7623333
            ],
            [
              -42.86974,
              -20.7624008
            ],
            [
              -42.869623,
              -20.7624929
            ],
            [
              -42.8690896,
              -20.7619007
            ],
            [
              -42.8691213,
              -20.7618757
            ],
            [
              -42.8692047,
              -20.7618101
            ],
            [
              -42.8692923,
              -20.7617411
            ]
          ]
        ]
      }
    },
    {
      "type": "Feature",
      "properties": {
        "name": "Centro de Ciências Exatas",
        "source": "https://www.openstreetmap.org/way/149507970"
      },
      "geometry": {
        "type": "Polygon",
        "coordinates": [
          [
            [
              -42.8680761,
              -20.763997
            ],
            [
              -42.867966,
              -20.7640446
            ],
            [
              -42.8680805,
              -20.7642518
            ],
            [
              -42.8680472,
              -20.7642998
            ],
            [
              -42.8683105,
              -20.7648343
            ],
            [
              -42.8683634,
              -20.7648113
            ],
            [
              -42.8685502,
              -20.7651645
            ],
            [
              -42.8686652,
              -20.7651202
            ],
            [
              -42.8680761,
              -20.763997
            ]
          ]
        ]
      }
    },
    {
      "type": "Feature",
      "properties": {
        "name": "Restaurante Universitário I",
        "source": "https://www.openstreetmap.org/way/292666797"
      },
      "geometry": {
        "type": "Polygon",
        "coordinates": [
          [
            [
              -42.8684578,
              -20.7602349
            ],
            [
              -42.8679657,
              -20.7606199
            ],
            [
              -42.8682835,
              -20.7609749
            ],
            [
              -42.8687755,
              -20.7605898
            ],
            [
              -42.8684578,
              -20.7602349
            ]
          ]
        ]
      }
    },
    {
      "type": "Feature",
      "properties": {
        "name": "Biblioteca Central",
        "source": "https://www.openstreetmap.org/way/292666798"
      },
      "geometry": {
        "type": "Polygon",
        "coordinates": [
          [
            [
              -42.8678613,
              -20.760815
            ],
            [
              -42.8681543,
              -20.7611619
            ],
            [
              -42.8680273,
              -20.7612557
            ],
            [
              -42.8680873,
              -20.7613749
            ],
            [
              -42.8677332,
              -20.7616658
            ],
            [
              -42.8677225,
              -20.761711
            ],
            [
              -42.867669,
              -20.7617565
            ],
            [
              -42.8676125,
              -20.7616984
            ],
            [
              -42.867626,
              -20.7615705
            ],
            [
              -42.8673234,
              -20.7612123
            ],
            [
              -42.8678613,
              -20.760815
            ]
          ]
        ]
      }
    },
    {
      "type": "Feature",
      "properties": {
        "name": "Ginásio Poliesportivo",
        "source": "https://www.openstreetmap.org/way/292822992"
      },
      "geometry": {
        "type": "Polygon",
        "coordinates": [
          [
            [
              -42.8657295,
              -20.7646775
            ],
            [
              -42.865375,
              -20.7642767
            ],
            [
              -42.8650549,
              -20.7645243
            ],
            [
              -42.8654095,
              -20.764925
            ],
            [
              -42.8657295,
              -20.7646775
            ]
          ]
        ]
      }
    },
    {
      "type": "Feature",
      "properties": {
        "name": "Praça P.H. Rolfs",
        "source": "https://www.openstreetmap.org/way/309610532"
      },
      "geometry": {
        "type": "Polygon",
        "coordinates": [
          [
            [
              -42.8695823,
              -20.7626518
            ],
            [
              -42.8689789,
              -20.7619591
            ],
            [
              -42.8683149,
              -20.7624441
            ],
            [
              -42.8689538,
              -20.7631482
            ],
            [
              -42.8690461,
              -20.763073
            ],
            [
              -42.8694725,
              -20.7627394
            ],
            [
              -42.8695823,
              -20.7626518
            ]
          ]
        ]
      }
    },
    {
      "type": "Feature",
      "properties": {
        "name": "Praça do DCE",
        "source": "https://www.openstreetmap.org/way/309610538"
      },
      "geometry": {
        "type": "Polygon",
        "coordinates": [
          [
            [
              -42.8679402,
              -20.7621652
            ],
            [
              -42.8674081,
              -20.7625822
            ],
            [
              -42.8674048,
              -20.7627273
            ],
            [
              -42.8675152,
              -20.7628776
            ],
            [
              -42.8678874,
              -20.7625924
            ],
            [
              -42.8679513,
              -20.7625923
            ],
            [
              -42.8681241,
              -20.7624802
            ],
            [
              -42.8680889,
              -20.7623825
            ],
            [
              -42.8679402,
              -20.7621652
            ]
          ]
        ]
      }
    }
  ]
}